[{"OBJECT_NAME":"QIANFAN-125","OBJECT_ID":"2026-075S","EPOCH":"2026-04-18T16:33:13.625856","MEAN_MOTION":14.26100554,"ECCENTRICITY":0.00145677,"INCLINATION":88.9909,"RA_OF_ASC_NODE":327.4285,"ARG_OF_PERICENTER":178.7872,"MEAN_ANOMALY":181.3359,"EPHEMERIS_TYPE":0,"CLASSIFICATION_TYPE":"U","NORAD_CAT_ID":68652,"ELEMENT_SET_NO":999,"REV_AT_EPOCH":158,"BSTAR":9.8809097e-5,"MEAN_MOTION_DOT":2.51e-6,"MEAN_MOTION_DDOT":0},{"OBJECT_NAME":"QIANFAN-126","OBJECT_ID":"2026-075T","EPOCH":"2026-04-18T13:10:56.081280","MEAN_MOTION":14.261112,"ECCENTRICITY":0.00146262,"INCLINATION":88.9909,"RA_OF_ASC_NODE":327.4447,"ARG_OF_PERICENTER":179.5626,"MEAN_ANOMALY":180.5583,"EPHEMERIS_TYPE":0,"CLASSIFICATION_TYPE":"U","NORAD_CAT_ID":68653,"ELEMENT_SET_NO":999,"REV_AT_EPOCH":156,"BSTAR":2.3624779e-5,"MEAN_MOTION_DOT":7.1e-7,"MEAN_MOTION_DDOT":0},{"OBJECT_NAME":"CZ-8 R/B","OBJECT_ID":"2026-075U","EPOCH":"2026-04-17T21:23:10.912128","MEAN_MOTION":14.40034364,"ECCENTRICITY":0.00736576,"INCLINATION":88.9901,"RA_OF_ASC_NODE":327.4926,"ARG_OF_PERICENTER":86.0522,"MEAN_ANOMALY":274.9096,"EPHEMERIS_TYPE":0,"CLASSIFICATION_TYPE":"U","NORAD_CAT_ID":68654,"ELEMENT_SET_NO":999,"REV_AT_EPOCH":147,"BSTAR":2.4313456e-5,"MEAN_MOTION_DOT":9.6e-7,"MEAN_MOTION_DDOT":0},{"OBJECT_NAME":"HULIANWANG DIGUI-164","OBJECT_ID":"2026-076A","EPOCH":"2026-04-19T05:18:10.266624","MEAN_MOTION":13.78822679,"ECCENTRICITY":0.0002295,"INCLINATION":86.4946,"RA_OF_ASC_NODE":64.5322,"ARG_OF_PERICENTER":153.6888,"MEAN_ANOMALY":206.4394,"EPHEMERIS_TYPE":0,"CLASSIFICATION_TYPE":"U","NORAD_CAT_ID":68656,"ELEMENT_SET_NO":999,"REV_AT_EPOCH":144,"BSTAR":-0.00093653,"MEAN_MOTION_DOT":-9.35e-6,"MEAN_MOTION_DDOT":0},{"OBJECT_NAME":"HULIANWANG DIGUI-165","OBJECT_ID":"2026-076B","EPOCH":"2026-04-19T05:15:49.910688","MEAN_MOTION":13.79346061,"ECCENTRICITY":0.0002207,"INCLINATION":86.497,"RA_OF_ASC_NODE":64.5352,"ARG_OF_PERICENTER":147.3903,"MEAN_ANOMALY":212.7399,"EPHEMERIS_TYPE":0,"CLASSIFICATION_TYPE":"U","NORAD_CAT_ID":68657,"ELEMENT_SET_NO":999,"REV_AT_EPOCH":144,"BSTAR":0.00014352,"MEAN_MOTION_DOT":1.64e-6,"MEAN_MOTION_DDOT":0},{"OBJECT_NAME":"HULIANWANG DIGUI-166","OBJECT_ID":"2026-076C","EPOCH":"2026-04-19T05:13:03.086112","MEAN_MOTION":13.79777791,"ECCENTRICITY":0.0001665,"INCLINATION":86.4906,"RA_OF_ASC_NODE":64.5223,"ARG_OF_PERICENTER":129.5258,"MEAN_ANOMALY":230.6054,"EPHEMERIS_TYPE":0,"CLASSIFICATION_TYPE":"U","NORAD_CAT_ID":68658,"ELEMENT_SET_NO":999,"REV_AT_EPOCH":144,"BSTAR":-0.00052269,"MEAN_MOTION_DOT":-5.23e-6,"MEAN_MOTION_DDOT":0},{"OBJECT_NAME":"HULIANWANG DIGUI-167","OBJECT_ID":"2026-076D","EPOCH":"2026-04-19T05:09:28.084896","MEAN_MOTION":13.80412832,"ECCENTRICITY":0.0001713,"INCLINATION":86.4965,"RA_OF_ASC_NODE":64.5333,"ARG_OF_PERICENTER":123.8271,"MEAN_ANOMALY":236.3058,"EPHEMERIS_TYPE":0,"CLASSIFICATION_TYPE":"U","NORAD_CAT_ID":68659,"ELEMENT_SET_NO":999,"REV_AT_EPOCH":144,"BSTAR":-6.6781e-5,"MEAN_MOTION_DOT":-5.3e-7,"MEAN_MOTION_DDOT":0},{"OBJECT_NAME":"HULIANWANG DIGUI-168","OBJECT_ID":"2026-076E","EPOCH":"2026-04-18T04:45:53.263296","MEAN_MOTION":13.81637658,"ECCENTRICITY":0.00028755,"INCLINATION":86.4944,"RA_OF_ASC_NODE":64.9055,"ARG_OF_PERICENTER":152.6077,"MEAN_ANOMALY":207.5242,"EPHEMERIS_TYPE":0,"CLASSIFICATION_TYPE":"U","NORAD_CAT_ID":68660,"ELEMENT_SET_NO":999,"REV_AT_EPOCH":129,"BSTAR":-0.000640624,"MEAN_MOTION_DOT":-6.66e-6,"MEAN_MOTION_DDOT":0},{"OBJECT_NAME":"CZ-6A R/B","OBJECT_ID":"2026-076F","EPOCH":"2026-04-19T20:53:51.605952","MEAN_MOTION":14.09391735,"ECCENTRICITY":0.0107029,"INCLINATION":86.507,"RA_OF_ASC_NODE":64.112,"ARG_OF_PERICENTER":76.7673,"MEAN_ANOMALY":284.5422,"EPHEMERIS_TYPE":0,"CLASSIFICATION_TYPE":"U","NORAD_CAT_ID":68661,"ELEMENT_SET_NO":999,"REV_AT_EPOCH":156,"BSTAR":2.4125e-6,"MEAN_MOTION_DOT":2.4e-7,"MEAN_MOTION_DDOT":0},{"OBJECT_NAME":"GUOWANG TEST OBJECT A","OBJECT_ID":"2026-078A","EPOCH":"2026-04-19T20:35:18.308256","MEAN_MOTION":13.68814581,"ECCENTRICITY":0.0008079,"INCLINATION":86.4976,"RA_OF_ASC_NODE":302.8593,"ARG_OF_PERICENTER":259.0699,"MEAN_ANOMALY":100.9552,"EPHEMERIS_TYPE":0,"CLASSIFICATION_TYPE":"U","NORAD_CAT_ID":68687,"ELEMENT_SET_NO":999,"REV_AT_EPOCH":113,"BSTAR":0.00031152,"MEAN_MOTION_DOT":2.85e-6,"MEAN_MOTION_DDOT":0},{"OBJECT_NAME":"GUOWANG TEST OBJECT B","OBJECT_ID":"2026-078B","EPOCH":"2026-04-19T14:50:39.602688","MEAN_MOTION":14.2157519,"ECCENTRICITY":0.02518102,"INCLINATION":86.5861,"RA_OF_ASC_NODE":302.8013,"ARG_OF_PERICENTER":359.1895,"MEAN_ANOMALY":0.8849,"EPHEMERIS_TYPE":0,"CLASSIFICATION_TYPE":"U","NORAD_CAT_ID":68688,"ELEMENT_SET_NO":999,"REV_AT_EPOCH":114,"BSTAR":8.5515894e-5,"MEAN_MOTION_DOT":2.79e-6,"MEAN_MOTION_DDOT":0},{"OBJECT_NAME":"CYGNUS NG-24","OBJECT_ID":"2026-079A","EPOCH":"2026-04-19T11:45:32.833440","MEAN_MOTION":15.4883325,"ECCENTRICITY":0.00066312,"INCLINATION":51.6329,"RA_OF_ASC_NODE":230.6068,"ARG_OF_PERICENTER":325.6576,"MEAN_ANOMALY":34.3983,"EPHEMERIS_TYPE":0,"CLASSIFICATION_TYPE":"U","NORAD_CAT_ID":68689,"ELEMENT_SET_NO":999,"REV_AT_EPOCH":121,"BSTAR":0.00019193879,"MEAN_MOTION_DOT":0.00010082,"MEAN_MOTION_DDOT":0},{"OBJECT_NAME":"GUOWANG TEST OBJECT C","OBJECT_ID":"2026-078C","EPOCH":"2026-04-19T14:25:20.980992","MEAN_MOTION":14.61759571,"ECCENTRICITY":0.04438885,"INCLINATION":86.6398,"RA_OF_ASC_NODE":302.677,"ARG_OF_PERICENTER":358.8487,"MEAN_ANOMALY":1.1657,"EPHEMERIS_TYPE":0,"CLASSIFICATION_TYPE":"U","NORAD_CAT_ID":68690,"ELEMENT_SET_NO":999,"REV_AT_EPOCH":117,"BSTAR":0.00030155056,"MEAN_MOTION_DOT":6.595e-5,"MEAN_MOTION_DDOT":0},{"OBJECT_NAME":"JILIN GAOFEN OBJECT A","OBJECT_ID":"2026-080A","EPOCH":"2026-04-19T17:13:37.278912","MEAN_MOTION":15.08316877,"ECCENTRICITY":0.001051,"INCLINATION":97.6642,"RA_OF_ASC_NODE":185.3455,"ARG_OF_PERICENTER":261.5316,"MEAN_ANOMALY":98.4721,"EPHEMERIS_TYPE":0,"CLASSIFICATION_TYPE":"U","NORAD_CAT_ID":68691,"ELEMENT_SET_NO":999,"REV_AT_EPOCH":84,"BSTAR":1.7305e-5,"MEAN_MOTION_DOT":2.04e-6,"MEAN_MOTION_DDOT":0},{"OBJECT_NAME":"JILIN GAOFEN OBJECT B","OBJECT_ID":"2026-080B","EPOCH":"2026-04-16T22:20:16.196064","MEAN_MOTION":15.09268839,"ECCENTRICITY":0.00140201,"INCLINATION":97.662,"RA_OF_ASC_NODE":182.5721,"ARG_OF_PERICENTER":270.2297,"MEAN_ANOMALY":89.7325,"EPHEMERIS_TYPE":0,"CLASSIFICATION_TYPE":"U","NORAD_CAT_ID":68692,"ELEMENT_SET_NO":999,"REV_AT_EPOCH":42,"BSTAR":0.00014838883,"MEAN_MOTION_DOT":2.302e-5,"MEAN_MOTION_DDOT":0},{"OBJECT_NAME":"JILIN GAOFEN OBJECT C","OBJECT_ID":"2026-080C","EPOCH":"2026-04-19T01:15:18.825408","MEAN_MOTION":15.09281899,"ECCENTRICITY":0.00140837,"INCLINATION":97.6618,"RA_OF_ASC_NODE":184.6919,"ARG_OF_PERICENTER":261.8747,"MEAN_ANOMALY":98.0884,"EPHEMERIS_TYPE":0,"CLASSIFICATION_TYPE":"U","NORAD_CAT_ID":68693,"ELEMENT_SET_NO":999,"REV_AT_EPOCH":74,"BSTAR":2.1875792e-5,"MEAN_MOTION_DOT":2.84e-6,"MEAN_MOTION_DDOT":0}]
