QIANFAN-125
1 68652U 26075S   26108.68974104  .00000251  00000+0  98809-4 0  9998
2 68652  88.9909 327.4285 0014567 178.7872 181.3359 14.26100554  1588
QIANFAN-126
1 68653U 26075T   26108.54926020  .00000071  00000+0  23625-4 0  9992
2 68653  88.9909 327.4447 0014626 179.5626 180.5583 14.26111200  1569
HULIANWANG DIGUI-164
1 68656U 26076A   26109.22095216 -.00000935  00000+0 -93653-3 0  9994
2 68656  86.4946  64.5322 0002295 153.6888 206.4394 13.78822679  1449
HULIANWANG DIGUI-165
1 68657U 26076B   26109.21932767  .00000164  00000+0  14352-3 0  9996
2 68657  86.4970  64.5352 0002207 147.3903 212.7399 13.79346061  1443
HULIANWANG DIGUI-166
1 68658U 26076C   26109.21739683 -.00000523  00000+0 -52269-3 0  9999
2 68658  86.4906  64.5223 0001665 129.5258 230.6054 13.79777791  1447
HULIANWANG DIGUI-167
1 68659U 26076D   26109.21490839 -.00000053  00000+0 -66781-4 0  9990
2 68659  86.4965  64.5333 0001713 123.8271 236.3058 13.80412832  1442
HULIANWANG DIGUI-168
1 68660U 26076E   26108.19853314 -.00000666  00000+0 -64062-3 0  9998
2 68660  86.4944  64.9055 0002875 152.6077 207.5242 13.81637658  1294
GUOWANG TEST OBJECT A
1 68687U 26078A   26109.85785079  .00000285  00000+0  31152-3 0  9994
2 68687  86.4976 302.8593 0008079 259.0699 100.9552 13.68814581  1133
CYGNUS NG-24
1 68689U 26079A   26109.48996335  .00010082  00000+0  19194-3 0  9993
2 68689  51.6329 230.6068 0006631 325.6576  34.3983 15.48833250  1213
JILIN GAOFEN OBJECT A
1 68691U 26080A   26109.71779258  .00000204  00000+0  17305-4 0  9995
2 68691  97.6642 185.3455 0010510 261.5316  98.4721 15.08316877   847
JILIN GAOFEN OBJECT B
1 68692U 26080B   26106.93074301  .00002302  00000+0  14839-3 0  9993
2 68692  97.6620 182.5721 0014020 270.2297  89.7325 15.09268839   426
JILIN GAOFEN OBJECT C
1 68693U 26080C   26109.05230122  .00000284  00000+0  21876-4 0  9992
2 68693  97.6618 184.6919 0014083 261.8747  98.0884 15.09281899   740
CZ-8 R/B
1 68654U 26075U   26107.89109852  .00000096  00000+0  24313-4 0  9998
2 68654  88.9901 327.4926 0073657  86.0522 274.9096 14.40034364  1478
CZ-6A R/B
1 68661U 26076F   26109.87073618  .00000024  00000+0  24125-5 0  9990
2 68661  86.5070  64.1120 0107029  76.7673 284.5422 14.09391735  1565
GUOWANG TEST OBJECT B
1 68688U 26078B   26109.61851392  .00000279  00000+0  85516-4 0  9998
2 68688  86.5861 302.8013 0251810 359.1895   0.8849 14.21575190  1146
GUOWANG TEST OBJECT C
1 68690U 26078C   26109.60093728  .00006595  00000+0  30155-3 0  9996
2 68690  86.6398 302.6770 0443888 358.8487   1.1657 14.61759571  1179
